[{"OBJECT_NAME":"APRIZESAT 3","OBJECT_ID":"2009-041F","EPOCH":"2026-03-09T21:53:07.275264","MEAN_MOTION":14.95902996,"ECCENTRICITY":0.00628853,"INCLINATION":98.1904,"RA_OF_ASC_NODE":217.4844,"ARG_OF_PERICENTER":35.8471,"MEAN_ANOMALY":324.6944,"EPHEMERIS_TYPE":0,"CLASSIFICATION_TYPE":"U","NORAD_CAT_ID":35686,"ELEMENT_SET_NO":999,"REV_AT_EPOCH":90153,"BSTAR":0.00014818153,"MEAN_MOTION_DOT":1.656e-5,"MEAN_MOTION_DDOT":0},{"OBJECT_NAME":"STARLINK-3881","OBJECT_ID":"2022-049X","EPOCH":"2026-03-09T23:17:27.211776","MEAN_MOTION":15.08844569,"ECCENTRICITY":0.00019733,"INCLINATION":53.2189,"RA_OF_ASC_NODE":57.85,"ARG_OF_PERICENTER":119.2801,"MEAN_ANOMALY":240.8388,"EPHEMERIS_TYPE":0,"CLASSIFICATION_TYPE":"U","NORAD_CAT_ID":52472,"ELEMENT_SET_NO":999,"REV_AT_EPOCH":21229,"BSTAR":-5.9160812e-5,"MEAN_MOTION_DOT":-1.23e-5,"MEAN_MOTION_DDOT":0}]
